{
  "type": "FeatureCollection",
  "features": [
    {
      "type": "Feature",
      "properties": {
        "norad_id": 33860,
        "name": "IRIDIUM 33 DEB",
        "group": "iridium-33-debris",
        "lat": 3.689010104887819,
        "lon": 31.526348146838224,
        "alt_km": 667.1868234171443,
        "timestamp": "2025-12-03T13:52:09.951153+00:00",
        "meta_object_name": "IRIDIUM 33 DEB",
        "meta_object_id": "1997-051AD",
        "meta_epoch": "2025-12-03T04:19:16.479840",
        "meta_mean_motion": 14.67156816,
        "meta_eccentricity": 0.00086215,
        "meta_inclination": 86.385,
        "meta_ra_of_asc_node": 31.4687,
        "meta_arg_of_pericenter": 29.2665,
        "meta_mean_anomaly": 34.6506,
        "meta_ephemeris_type": 0,
        "meta_classification_type": "U",
        "meta_norad_cat_id": 33860,
        "meta_element_set_no": 999,
        "meta_rev_at_epoch": 88582,
        "meta_bstar": 0.001742809,
        "meta_mean_motion_dot": 9.83e-05,
        "meta_mean_motion_ddot": 0,
        "tle_line1": "1 33860U 97051AD  25337.18005185  .00009830  00000+0  17428-2 0  9993",
        "tle_line2": "2 33860  86.3850  31.4687 0008621  29.2665  34.6506 14.67156816885828"
      },
      "geometry": {
        "type": "Point",
        "coordinates": [
          31.526348146838224,
          3.689010104887819
        ]
      }
    },
    {
      "type": "Feature",
      "properties": {
        "norad_id": 33862,
        "name": "IRIDIUM 33 DEB",
        "group": "iridium-33-debris",
        "lat": -30.01800998214755,
        "lon": 39.49088655159161,
        "alt_km": 693.8246601449237,
        "timestamp": "2025-12-03T13:52:09.951165+00:00",
        "meta_object_name": "IRIDIUM 33 DEB",
        "meta_object_id": "1997-051AF",
        "meta_epoch": "2025-12-03T04:17:47.183712",
        "meta_mean_motion": 14.69210658,
        "meta_eccentricity": 0.00540854,
        "meta_inclination": 86.4104,
        "meta_ra_of_asc_node": 41.7451,
        "meta_arg_of_pericenter": 101.0892,
        "meta_mean_anomaly": 281.076,
        "meta_ephemeris_type": 0,
        "meta_classification_type": "U",
        "meta_norad_cat_id": 33862,
        "meta_element_set_no": 999,
        "meta_rev_at_epoch": 88683,
        "meta_bstar": 0.0018597954,
        "meta_mean_motion_dot": 0.00011231,
        "meta_mean_motion_ddot": 0,
        "tle_line1": "1 33862U 97051AF  25337.17901833  .00011231  00000+0  18598-2 0  9996",
        "tle_line2": "2 33862  86.4104  41.7451 0054085 101.0892 281.0760 14.69210658886831"
      },
      "geometry": {
        "type": "Point",
        "coordinates": [
          39.49088655159161,
          -30.01800998214755
        ]
      }
    },
    {
      "type": "Feature",
      "properties": {
        "norad_id": 33866,
        "name": "IRIDIUM 33 DEB",
        "group": "iridium-33-debris",
        "lat": 47.428130626255424,
        "lon": 100.95071677595217,
        "alt_km": 868.5287421389594,
        "timestamp": "2025-12-03T13:52:09.951177+00:00",
        "meta_object_name": "IRIDIUM 33 DEB",
        "meta_object_id": "1997-051AK",
        "meta_epoch": "2025-12-03T08:50:48.902784",
        "meta_mean_motion": 14.25219287,
        "meta_eccentricity": 0.01137108,
        "meta_inclination": 86.2997,
        "meta_ra_of_asc_node": 96.9997,
        "meta_arg_of_pericenter": 191.2792,
        "meta_mean_anomaly": 224.088,
        "meta_ephemeris_type": 0,
        "meta_classification_type": "U",
        "meta_norad_cat_id": 33866,
        "meta_element_set_no": 999,
        "meta_rev_at_epoch": 86677,
        "meta_bstar": 0.0010230104,
        "meta_mean_motion_dot": 2.59e-05,
        "meta_mean_motion_ddot": 0,
        "tle_line1": "1 33866U 97051AK  25337.36862156  .00002590  00000+0  10230-2 0  9998",
        "tle_line2": "2 33866  86.2997  96.9997 0113710 191.2792 224.0880 14.25219287866771"
      },
      "geometry": {
        "type": "Point",
        "coordinates": [
          100.95071677595217,
          47.428130626255424
        ]
      }
    },
    {
      "type": "Feature",
      "properties": {
        "norad_id": 33867,
        "name": "IRIDIUM 33 DEB",
        "group": "iridium-33-debris",
        "lat": -46.529192162695914,
        "lon": -9.032790674749155,
        "alt_km": 418.87938525965,
        "timestamp": "2025-12-03T13:52:09.951188+00:00",
        "meta_object_name": "IRIDIUM 33 DEB",
        "meta_object_id": "1997-051AL",
        "meta_epoch": "2025-12-03T07:53:15.166464",
        "meta_mean_motion": 15.53727826,
        "meta_eccentricity": 0.00121818,
        "meta_inclination": 86.3627,
        "meta_ra_of_asc_node": 354.9416,
        "meta_arg_of_pericenter": 99.5397,
        "meta_mean_anomaly": 260.7241,
        "meta_ephemeris_type": 0,
        "meta_classification_type": "U",
        "meta_norad_cat_id": 33867,
        "meta_element_set_no": 999,
        "meta_rev_at_epoch": 89364,
        "meta_bstar": 0.0073072156,
        "meta_mean_motion_dot": 0.00497539,
        "meta_mean_motion_ddot": 0,
        "tle_line1": "1 33867U 97051AL  25337.32864776  .00497539  00000+0  73072-2 0  9999",
        "tle_line2": "2 33867  86.3627 354.9416 0012181  99.5397 260.7241 15.53727826893646"
      },
      "geometry": {
        "type": "Point",
        "coordinates": [
          -9.032790674749155,
          -46.529192162695914
        ]
      }
    },
    {
      "type": "Feature",
      "properties": {
        "norad_id": 33870,
        "name": "IRIDIUM 33 DEB",
        "group": "iridium-33-debris",
        "lat": -10.032890128721192,
        "lon": -117.17002874006437,
        "alt_km": 729.9869364870619,
        "timestamp": "2025-12-03T13:52:09.951200+00:00",
        "meta_object_name": "IRIDIUM 33 DEB",
        "meta_object_id": "1997-051AP",
        "meta_epoch": "2025-12-03T04:49:08.389056",
        "meta_mean_motion": 14.45760529,
        "meta_eccentricity": 0.00204752,
        "meta_inclination": 86.3757,
        "meta_ra_of_asc_node": 62.349,
        "meta_arg_of_pericenter": 209.9044,
        "meta_mean_anomaly": 178.6407,
        "meta_ephemeris_type": 0,
        "meta_classification_type": "U",
        "meta_norad_cat_id": 33870,
        "meta_element_set_no": 999,
        "meta_rev_at_epoch": 87999,
        "meta_bstar": 0.0011974106,
        "meta_mean_motion_dot": 4.273e-05,
        "meta_mean_motion_ddot": 0,
        "tle_line1": "1 33870U 97051AP  25337.20079154  .00004273  00000+0  11974-2 0  9990",
        "tle_line2": "2 33870  86.3757  62.3490 0020475 209.9044 178.6407 14.45760529879997"
      },
      "geometry": {
        "type": "Point",
        "coordinates": [
          -117.17002874006437,
          -10.032890128721192
        ]
      }
    },
    {
      "type": "Feature",
      "properties": {
        "norad_id": 33881,
        "name": "IRIDIUM 33 DEB",
        "group": "iridium-33-debris",
        "lat": 67.38564708019666,
        "lon": 119.44738702498753,
        "alt_km": 730.0799571492344,
        "timestamp": "2025-12-03T13:52:09.951211+00:00",
        "meta_object_name": "IRIDIUM 33 DEB",
        "meta_object_id": "1997-051BA",
        "meta_epoch": "2025-12-03T08:52:49.328832",
        "meta_mean_motion": 14.56290168,
        "meta_eccentricity": 0.00611572,
        "meta_inclination": 86.3865,
        "meta_ra_of_asc_node": 110.812,
        "meta_arg_of_pericenter": 205.0667,
        "meta_mean_anomaly": 213.9917,
        "meta_ephemeris_type": 0,
        "meta_classification_type": "U",
        "meta_norad_cat_id": 33881,
        "meta_element_set_no": 999,
        "meta_rev_at_epoch": 87364,
        "meta_bstar": 0.0026029881,
        "meta_mean_motion_dot": 0.00011848,
        "meta_mean_motion_ddot": 0,
        "tle_line1": "1 33881U 97051BA  25337.37001538  .00011848  00000+0  26030-2 0  9996",
        "tle_line2": "2 33881  86.3865 110.8120 0061157 205.0667 213.9917 14.56290168873642"
      },
      "geometry": {
        "type": "Point",
        "coordinates": [
          119.44738702498753,
          67.38564708019666
        ]
      }
    },
    {
      "type": "Feature",
      "properties": {
        "norad_id": 33884,
        "name": "IRIDIUM 33 DEB",
        "group": "iridium-33-debris",
        "lat": 48.04450407892348,
        "lon": 18.00309719334637,
        "alt_km": 629.4164580284123,
        "timestamp": "2025-12-03T13:52:09.951222+00:00",
        "meta_object_name": "IRIDIUM 33 DEB",
        "meta_object_id": "1997-051BD",
        "meta_epoch": "2025-12-03T02:24:03.793824",
        "meta_mean_motion": 14.77130142,
        "meta_eccentricity": 0.00106894,
        "meta_inclination": 86.3701,
        "meta_ra_of_asc_node": 14.1694,
        "meta_arg_of_pericenter": 359.2537,
        "meta_mean_anomaly": 29.5165,
        "meta_ephemeris_type": 0,
        "meta_classification_type": "U",
        "meta_norad_cat_id": 33884,
        "meta_element_set_no": 999,
        "meta_rev_at_epoch": 88705,
        "meta_bstar": 0.0017255958,
        "meta_mean_motion_dot": 0.0001224,
        "meta_mean_motion_ddot": 0,
        "tle_line1": "1 33884U 97051BD  25337.10004391  .00012240  00000+0  17256-2 0  9997",
        "tle_line2": "2 33884  86.3701  14.1694 0010689 359.2537  29.5165 14.77130142887052"
      },
      "geometry": {
        "type": "Point",
        "coordinates": [
          18.00309719334637,
          48.04450407892348
        ]
      }
    }
  ]
}